H1 CPF 01  gfz 2021 11 10 01  8141 tandemx   
H2 1003001  6202 36605    2021 11 10 00 59 42 2021 11 15 00 00 42   120 1 1  0 0 0
H9
10 0 59531  25902.000000  0     345311.070  -1043202.876  -6806997.864
10 0 59531  26022.000000  0    -530020.029   -767246.603  -6831748.856
10 0 59531  26142.000000  0   -1391093.615   -462811.854  -6737367.848
10 0 59531  26262.000000  0   -2222547.316   -135551.952  -6525477.059
10 0 59531  26382.000000  0   -3009621.732    208219.412  -6199720.905
10 0 59531  26502.000000  0   -3738416.836    561645.594  -5765710.484
10 0 59531  26622.000000  0   -4396136.724    917459.004  -5230937.549
10 0 59531  26742.000000  0   -4971316.624   1268124.912  -4604656.618
10 0 59531  26862.000000  0   -5454029.993   1605996.715  -3897737.192
10 0 59531  26982.000000  0   -5836068.996   1923478.529  -3122484.029
10 0 59531  27102.000000  0   -6111095.242   2213190.706  -2292430.070
10 0 59531  27222.000000  0   -6274757.060   2468135.784  -1422103.746
10 0 59531  27342.000000  0   -6324769.427   2681860.944   -526774.048
10 0 59531  27462.000000  0   -6260953.720   2848612.053    377822.167
10 0 59531  27582.000000  0   -6085234.222   2963475.262   1275764.729
10 0 59531  27702.000000  0   -5801591.710   3022502.977   2151239.137
10 0 59531  27822.000000  0   -5415975.212   3022819.822   2988824.066
10 0 59531  27942.000000  0   -4936175.382   2962706.628   3773770.830
10 0 59531  28062.000000  0   -4371660.981   2841659.241   4492269.320
10 0 59531  28182.000000  0   -3733384.290   2660421.812   5131692.829
10 0 59531  28302.000000  0   -3033561.535   2420994.568   5680819.363
10 0 59531  28422.000000  0   -2285431.625   2126615.760   6130026.539
10 0 59531  28542.000000  0   -1502998.974   1781717.529   6471455.230
10 0 59531  28662.000000  0    -700766.493   1391857.463   6699140.210
10 0 59531  28782.000000  0     106534.173    963627.157   6809107.219
10 0 59531  28902.000000  0     904212.533    504539.812   6799437.915
10 0 59531  29022.000000  0    1677885.493     22898.670   6670300.933
10 0 59531  29142.000000  0    2413735.444   -472352.320   6423949.617
10 0 59531  29262.000000  0    3098756.875   -971793.997   6064686.137
10 0 59531  29382.000000  0    3720988.496  -1465709.851   5598791.516
10 0 59531  29502.000000  0    4269726.117  -1944274.797   5034421.121
10 0 59531  29622.000000  0    4735711.391  -2397750.349   4381467.645
10 0 59531  29742.000000  0    5111295.538  -2816683.507   3651393.776
10 0 59531  29862.000000  0    5390573.572  -3192105.226   2857033.197
10 0 59531  29982.000000  0    5569483.392  -3515722.547   2012363.523
10 0 59531  30102.000000  0    5645868.278  -3780101.080   1132257.799
10 0 59531  30222.000000  0    5619502.056  -3978833.174    232216.502
10 0 59531  30342.000000  0    5492074.907  -4106686.031   -671912.940
10 0 59531  30462.000000  0    5267140.538  -4159727.481  -1564224.620
10 0 59531  30582.000000  0    4950025.405  -4135424.255  -2429042.634
10 0 59531  30702.000000  0    4547702.640  -4032711.829  -3251202.985
10 0 59531  30822.000000  0    4068635.078  -3852034.213  -4016323.329
10 0 59531  30942.000000  0    3522591.058  -3595352.765  -4711054.465
10 0 59531  31062.000000  0    2920438.996  -3266124.727  -5323309.532
10 0 59531  31182.000000  0    2273925.606  -2869252.504  -5842466.201
10 0 59531  31302.000000  0    1595444.406  -2411006.988  -6259540.180
10 0 59531  31422.000000  0     897797.782  -1898925.375  -6567331.451
10 0 59531  31542.000000  0     193956.082  -1341683.733  -6760538.187
10 0 59531  31662.000000  0    -503179.984   -748949.610  -6835837.655
10 0 59531  31782.000000  0   -1181009.992   -131216.746  -6791936.254
10 0 59531  31902.000000  0   -1827456.285    500376.382  -6629589.067
10 0 59531  32022.000000  0   -2431174.155   1134242.151  -6351587.742
10 0 59531  32142.000000  0   -2981746.582   1758550.951  -5962717.838
10 0 59531  32262.000000  0   -3469862.266   2361446.929  -5469685.938
10 0 59531  32382.000000  0   -3887475.388   2931270.626  -4881016.150
10 0 59531  32502.000000  0   -4227943.456   3456784.101  -4206913.548
10 0 59531  32622.000000  0   -4486138.412   3927393.648  -3459096.715
10 0 59531  32742.000000  0   -4658529.663   4333366.475  -2650602.917
10 0 59531  32862.000000  0   -4743237.938   4666035.880  -1795565.807
10 0 59531  32982.000000  0   -4740056.963   4917989.969   -908970.250
10 0 59531  33102.000000  0   -4650442.788   5083239.699     -6386.921
10 0 59531  33222.000000  0   -4477467.303   5157360.218    896307.814
10 0 59531  33342.000000  0   -4225740.648   5137601.800   1783219.300
10 0 59531  33462.000000  0   -3901300.634   5022966.344   2638725.276
10 0 59531  33582.000000  0   -3511472.782   4814247.599   3447759.467
10 0 59531  33702.000000  0   -3064706.041   4514035.482   4196082.732
10 0 59531  33822.000000  0   -2570389.045   4126684.687   4870537.599
10 0 59531  33942.000000  0   -2038650.075   3658247.441   5459280.983
10 0 59531  34062.000000  0   -1480146.460   3116372.489   5951990.337
10 0 59531  34182.000000  0    -905848.091   2510173.430   6340039.972
10 0 59531  34302.000000  0    -326820.817   1850069.385   6616644.844
10 0 59531  34422.000000  0     245986.002   1147603.035   6776973.372
10 0 59531  34542.000000  0     801946.412    415236.473   6818226.700
10 0 59531  34662.000000  0    1330953.939   -333869.440   6739683.853
10 0 59531  34782.000000  0    1823604.383  -1086090.798   6542714.517
10 0 59531  34902.000000  0    2271362.806  -1827587.836   6230756.677
10 0 59531  35022.000000  0    2666712.423  -2544559.255   5809261.484
10 0 59531  35142.000000  0    3003283.300  -3223500.533   5285603.305
10 0 59531  35262.000000  0    3275957.299  -3851460.968   4668956.395
10 0 59531  35382.000000  0    3480948.746  -4416295.057   3970139.934
10 0 59531  35502.000000  0    3615858.739  -4906903.784   3201431.391
10 0 59531  35622.000000  0    3679700.739  -5313459.035   2376351.610
10 0 59531  35742.000000  0    3672897.516  -5627606.784   1509424.936
10 0 59531  35862.000000  0    3597248.751  -5842643.320    615918.549
10 0 59531  35982.000000  0    3455870.123  -5953658.976   -288432.748
10 0 59531  36102.000000  0    3253106.778  -5957648.925  -1187711.768
10 0 59531  36222.000000  0    2994419.520  -5853583.845  -2066109.105
10 0 59531  36342.000000  0    2686249.945  -5642441.098  -2908207.851
10 0 59531  36462.000000  0    2335867.423  -5327195.512  -3699260.392
10 0 59531  36582.000000  0    1951201.011  -4912769.445  -4425449.278
10 0 59531  36702.000000  0    1540661.598  -4405944.884  -5074125.575
10 0 59531  36822.000000  0    1112960.700  -3815241.850  -5634022.622
10 0 59531  36942.000000  0     676928.312  -3150765.922  -6095442.852
10 0 59531  37062.000000  0     241333.246  -2424028.563  -6450414.704
10 0 59531  37182.000000  0    -185289.733  -1647743.961  -6692819.014
10 0 59531  37302.000000  0    -594802.659   -835606.201  -6818484.290
10 0 59531  37422.000000  0    -979614.720     -2050.195  -6825250.895
10 0 59531  37542.000000  0   -1332819.230    837999.540  -6713003.063
10 0 59531  37662.000000  0   -1648314.729   1669389.008  -6483670.440
10 0 59531  37782.000000  0   -1920907.889   2477001.187  -6141198.335
10 0 59531  37902.000000  0   -2146398.575   3246025.370  -5691488.659
10 0 59531  38022.000000  0   -2321644.910   3962226.630  -5142308.340
10 0 59531  38142.000000  0   -2444607.583   4612210.362  -4503167.152
10 0 59531  38262.000000  0   -2514372.517   5183677.688  -3785163.250
10 0 59531  38382.000000  0   -2531150.044   5665664.387  -3000798.482
10 0 59531  38502.000000  0   -2496250.738   6048759.723  -2163768.284
10 0 59531  38622.000000  0   -2412038.763   6325301.613  -1288725.665
10 0 59531  38742.000000  0   -2281862.676   6489538.574   -391023.133
10 0 59531  38862.000000  0   -2109965.982   6537757.724    513558.939
10 0 59531  38982.000000  0   -1901378.617   6468375.628   1409098.610
10 0 59531  39102.000000  0   -1661790.115   6281981.564   2279824.422
10 0 59531  39222.000000  0   -1397409.611   5981336.049   3110401.626
10 0 59531  39342.000000  0   -1114817.247   5571326.860   3886208.477
10 0 59531  39462.000000  0    -820810.843   5058884.065   4593598.590
10 0 59531  39582.000000  0    -522249.595   4452853.471   5220144.962
10 0 59531  39702.000000  0    -225898.757   3763832.943   5754855.452
10 0 59531  39822.000000  0      61717.975   3003979.547   6188362.375
10 0 59531  39942.000000  0     334457.622   2186786.605   6513081.424
10 0 59531  40062.000000  0     586685.622   1326839.348   6723338.156
10 0 59531  40182.000000  0     813389.667    439551.088   6815461.383
10 0 59531  40302.000000  0    1010277.454   -459112.963   6787842.372
10 0 59531  40422.000000  0    1173857.120  -1352921.989   6640962.396
10 0 59531  40542.000000  0    1301499.223  -2225672.436   6377385.165
10 0 59531  40662.000000  0    1391479.149  -3061481.951   6001715.463
10 0 59531  40782.000000  0    1442999.015  -3845080.717   5520523.050
10 0 59531  40902.000000  0    1456188.892  -4562092.977   4942232.146
10 0 59531  41022.000000  0    1432088.542  -5199304.825   4276980.456
10 0 59531  41142.000000  0    1372609.000  -5744916.589   3536447.488
10 0 59531  41262.000000  0    1280474.527  -6188771.409   2733650.597
10 0 59531  41382.000000  0    1159145.796  -6522552.684   1882715.447
10 0 59531  41502.000000  0    1012725.983  -6739949.171    998625.270
10 0 59531  41622.000000  0     845852.679  -6836782.086     96951.450
10 0 59531  41742.000000  0     663576.941  -6811090.744   -806429.993
10 0 59531  41862.000000  0     471232.573  -6663170.333  -1695628.846
10 0 59531  41982.000000  0     274301.519  -6395563.269  -2555028.071
10 0 59531  42102.000000  0      78277.653  -6013007.318  -3369563.456
10 0 59531  42222.000000  0    -111468.069  -5522341.259  -4124991.184
10 0 59531  42342.000000  0    -289817.727  -4932369.352  -4808136.890
99
